{
  "norad_id": 67375,
  "name": "AETHER-4",
  "history": [
    {
      "epoch": "2026-03-28T22:31:26.599584Z",
      "apogee_km": 608.0794743362094,
      "perigee_km": 599.8071056086501,
      "latitude_deg": -7.625195114253175e-05,
      "longitude_deg": -76.33958723458724,
      "height_km": 603.8857534922458,
      "semi_major_axis_km": 6982.0802899724295,
      "eccentricity": 0.0005924,
      "inclination_deg": 97.8042,
      "raan_deg": 87.873,
      "arg_perigee_deg": 41.761,
      "mean_anomaly_deg": 318.4057,
      "mean_motion_rev_day": 14.88077342
    },
    {
      "epoch": "2026-03-28T22:31:26.600448Z",
      "apogee_km": 608.0791252321951,
      "perigee_km": 599.8074547126644,
      "latitude_deg": 2.7339968570989987e-05,
      "longitude_deg": -76.33960496524506,
      "height_km": 603.885996205916,
      "semi_major_axis_km": 6982.0802899724295,
      "eccentricity": 0.00059235,
      "inclination_deg": 97.8042,
      "raan_deg": 87.873,
      "arg_perigee_deg": 41.761,
      "mean_anomaly_deg": 318.4058,
      "mean_motion_rev_day": 14.88077342
    }
  ]
}